XRISM                   
1 57800U 23137A   24044.82115041  .00008845  00000+0  69514-3 0  9994
2 57800  31.0040  83.2451 0009765  58.0444 302.1140 14.99587395 23911
